STARLINK-32668          
1 62212U 24229W   26067.60967246  .00032951  00000+0  12001-2 0  9998
2 62212  43.0037 273.5771 0002246 259.5738 100.4861 15.27621238 70438
JINJUSAT-1B             
1 63210U 25052A   26068.66363707  .00019955  00000+0  68430-3 0  9998
2 63210  97.4113 325.4613 0005550  82.1930 277.9941 15.30194857 54866
